{
  "type": "FeatureCollection",
  "features": [
    {
      "type": "Feature",
      "properties": {
        "norad_id": 39766,
        "name": "ALOS-2",
        "group": "resource",
        "lat": -41.30430994617275,
        "lon": -103.59798255767183,
        "alt_km": 638.0735334915289,
        "timestamp": "2025-12-14T14:39:29.033427+00:00",
        "meta_object_name": "ALOS-2",
        "meta_object_id": "2014-029A",
        "meta_epoch": "2025-12-14T08:47:22.493184",
        "meta_mean_motion": 14.79469978,
        "meta_eccentricity": 0.0001379,
        "meta_inclination": 97.9225,
        "meta_ra_of_asc_node": 83.1892,
        "meta_arg_of_pericenter": 102.2886,
        "meta_mean_anomaly": 257.848,
        "meta_ephemeris_type": 0,
        "meta_classification_type": "U",
        "meta_norad_cat_id": 39766,
        "meta_element_set_no": 999,
        "meta_rev_at_epoch": 62425,
        "meta_bstar": 0.00031508,
        "meta_mean_motion_dot": 2.302e-05,
        "meta_mean_motion_ddot": 0,
        "tle_line1": "1 39766U 14029A   25348.36623256  .00002302  00000+0  31508-3 0  9998",
        "tle_line2": "2 39766  97.9225  83.1892 0001379 102.2886 257.8480 14.79469978624252"
      },
      "geometry": {
        "type": "Point",
        "coordinates": [
          -103.59798255767183,
          -41.30430994617275
        ]
      }
    },
    {
      "type": "Feature",
      "properties": {
        "norad_id": 40010,
        "name": "KAZEOSAT 2",
        "group": "resource",
        "lat": 9.701298608379593,
        "lon": 14.128139507876618,
        "alt_km": 610.0584907556149,
        "timestamp": "2025-12-14T14:39:29.033437+00:00",
        "meta_object_name": "KAZEOSAT 2",
        "meta_object_id": "2014-033A",
        "meta_epoch": "2025-12-13T23:20:29.408640",
        "meta_mean_motion": 14.85170609,
        "meta_eccentricity": 0.00077316,
        "meta_inclination": 97.5509,
        "meta_ra_of_asc_node": 192.2237,
        "meta_arg_of_pericenter": 202.3323,
        "meta_mean_anomaly": 157.7558,
        "meta_ephemeris_type": 0,
        "meta_classification_type": "U",
        "meta_norad_cat_id": 40010,
        "meta_element_set_no": 999,
        "meta_rev_at_epoch": 62146,
        "meta_bstar": 0.00012008991,
        "meta_mean_motion_dot": 9.79e-06,
        "meta_mean_motion_ddot": 0,
        "tle_line1": "1 40010U 14033A   25347.97256260  .00000979  00000+0  12009-3 0  9993",
        "tle_line2": "2 40010  97.5509 192.2237 0007731 202.3323 157.7558 14.85170609621469"
      },
      "geometry": {
        "type": "Point",
        "coordinates": [
          14.128139507876618,
          9.701298608379593
        ]
      }
    },
    {
      "type": "Feature",
      "properties": {
        "norad_id": 40011,
        "name": "HODOYOSHI-4",
        "group": "resource",
        "lat": -81.58333761987956,
        "lon": -119.0403226448136,
        "alt_km": 610.1914227005273,
        "timestamp": "2025-12-14T14:39:29.033448+00:00",
        "meta_object_name": "HODOYOSHI-4",
        "meta_object_id": "2014-033B",
        "meta_epoch": "2025-12-14T00:30:58.317120",
        "meta_mean_motion": 14.87490404,
        "meta_eccentricity": 0.00232892,
        "meta_inclination": 97.5418,
        "meta_ra_of_asc_node": 176.8422,
        "meta_arg_of_pericenter": 195.9885,
        "meta_mean_anomaly": 164.06,
        "meta_ephemeris_type": 0,
        "meta_classification_type": "U",
        "meta_norad_cat_id": 40011,
        "meta_element_set_no": 999,
        "meta_rev_at_epoch": 62127,
        "meta_bstar": 0.00032588977,
        "meta_mean_motion_dot": 2.916e-05,
        "meta_mean_motion_ddot": 0,
        "tle_line1": "1 40011U 14033B   25348.02150830  .00002916  00000+0  32589-3 0  9995",
        "tle_line2": "2 40011  97.5418 176.8422 0023289 195.9885 164.0600 14.87490404621277"
      },
      "geometry": {
        "type": "Point",
        "coordinates": [
          -119.0403226448136,
          -81.58333761987956
        ]
      }
    },
    {
      "type": "Feature",
      "properties": {
        "norad_id": 40013,
        "name": "DEIMOS-2",
        "group": "resource",
        "lat": 70.78383964204033,
        "lon": 66.89293403580203,
        "alt_km": 581.2063631555375,
        "timestamp": "2025-12-14T14:39:29.033474+00:00",
        "meta_object_name": "DEIMOS-2",
        "meta_object_id": "2014-033D",
        "meta_epoch": "2025-12-13T23:42:03.385152",
        "meta_mean_motion": 14.92981344,
        "meta_eccentricity": 8.528e-05,
        "meta_inclination": 97.6063,
        "meta_ra_of_asc_node": 223.7467,
        "meta_arg_of_pericenter": 108.5548,
        "meta_mean_anomaly": 251.5765,
        "meta_ephemeris_type": 0,
        "meta_classification_type": "U",
        "meta_norad_cat_id": 40013,
        "meta_element_set_no": 999,
        "meta_rev_at_epoch": 61008,
        "meta_bstar": 0.00035736687,
        "meta_mean_motion_dot": 3.659e-05,
        "meta_mean_motion_ddot": 0,
        "tle_line1": "1 40013U 14033D   25347.98753918  .00003659  00000+0  35737-3 0  9990",
        "tle_line2": "2 40013  97.6063 223.7467 0000852 108.5548 251.5765 14.92981344610089"
      },
      "geometry": {
        "type": "Point",
        "coordinates": [
          66.89293403580203,
          70.78383964204033
        ]
      }
    },
    {
      "type": "Feature",
      "properties": {
        "norad_id": 40015,
        "name": "HODOYOSHI-3",
        "group": "resource",
        "lat": -0.6788164871259751,
        "lon": -25.726754583462174,
        "alt_km": 606.4461096412851,
        "timestamp": "2025-12-14T14:39:29.033484+00:00",
        "meta_object_name": "HODOYOSHI-3",
        "meta_object_id": "2014-033F",
        "meta_epoch": "2025-12-13T23:17:17.671488",
        "meta_mean_motion": 14.84812483,
        "meta_eccentricity": 0.00319395,
        "meta_inclination": 97.6197,
        "meta_ra_of_asc_node": 153.7518,
        "meta_arg_of_pericenter": 243.7861,
        "meta_mean_anomaly": 116.007,
        "meta_ephemeris_type": 0,
        "meta_classification_type": "U",
        "meta_norad_cat_id": 40015,
        "meta_element_set_no": 999,
        "meta_rev_at_epoch": 62013,
        "meta_bstar": 0.00024890133,
        "meta_mean_motion_dot": 2.079e-05,
        "meta_mean_motion_ddot": 0,
        "tle_line1": "1 40015U 14033F   25347.97034342  .00002079  00000+0  24890-3 0  9997",
        "tle_line2": "2 40015  97.6197 153.7518 0031939 243.7861 116.0070 14.84812483620137"
      },
      "geometry": {
        "type": "Point",
        "coordinates": [
          -25.726754583462174,
          -0.6788164871259751
        ]
      }
    },
    {
      "type": "Feature",
      "properties": {
        "norad_id": 40053,
        "name": "SPOT 7",
        "group": "resource",
        "lat": 75.72836696686343,
        "lon": -95.35659700676558,
        "alt_km": 682.5391280865615,
        "timestamp": "2025-12-14T14:39:29.033494+00:00",
        "meta_object_name": "SPOT 7",
        "meta_object_id": "2014-034A",
        "meta_epoch": "2025-12-13T23:23:53.216736",
        "meta_mean_motion": 14.60737277,
        "meta_eccentricity": 0.00015791,
        "meta_inclination": 98.0904,
        "meta_ra_of_asc_node": 50.0216,
        "meta_arg_of_pericenter": 86.8308,
        "meta_mean_anomaly": 273.3073,
        "meta_ephemeris_type": 0,
        "meta_classification_type": "U",
        "meta_norad_cat_id": 40053,
        "meta_element_set_no": 999,
        "meta_rev_at_epoch": 61009,
        "meta_bstar": 0.00023544086,
        "meta_mean_motion_dot": 1.102e-05,
        "meta_mean_motion_ddot": 0,
        "tle_line1": "1 40053U 14034A   25347.97492149  .00001102  00000+0  23544-3 0  9994",
        "tle_line2": "2 40053  98.0904  50.0216 0001579  86.8308 273.3073 14.60737277610098"
      },
      "geometry": {
        "type": "Point",
        "coordinates": [
          -95.35659700676558,
          75.72836696686343
        ]
      }
    },
    {
      "type": "Feature",
      "properties": {
        "norad_id": 40072,
        "name": "SKYSAT-B",
        "group": "resource",
        "lat": -35.42210094793585,
        "lon": 106.41137855838807,
        "alt_km": 611.1701411654476,
        "timestamp": "2025-12-14T14:39:29.033504+00:00",
        "meta_object_name": "SKYSAT-B",
        "meta_object_id": "2014-037D",
        "meta_epoch": "2025-12-13T19:55:50.871360",
        "meta_mean_motion": 14.87333305,
        "meta_eccentricity": 0.00062291,
        "meta_inclination": 98.3607,
        "meta_ra_of_asc_node": 291.5941,
        "meta_arg_of_pericenter": 146.8423,
        "meta_mean_anomaly": 213.3183,
        "meta_ephemeris_type": 0,
        "meta_classification_type": "U",
        "meta_norad_cat_id": 40072,
        "meta_element_set_no": 999,
        "meta_rev_at_epoch": 61840,
        "meta_bstar": 0.00025305466,
        "meta_mean_motion_dot": 2.225e-05,
        "meta_mean_motion_ddot": 0,
        "tle_line1": "1 40072U 14037D   25347.83044990  .00002225  00000+0  25305-3 0  9994",
        "tle_line2": "2 40072  98.3607 291.5941 0006229 146.8423 213.3183 14.87333305618403"
      },
      "geometry": {
        "type": "Point",
        "coordinates": [
          106.41137855838807,
          -35.42210094793585
        ]
      }
    }
  ]
}